SKYSAT-C1               
1 41601U 16040C   26178.05111674  .00009636  00000+0  27289-3 0  9996
2 41601  96.9564 209.2368 0002527  37.9380 322.2043 15.36462513559381
LAPAN-A3                
1 41603U 16040E   26178.30773625  .00003963  00000+0  12589-3 0  9990
2 41603  97.1487 174.1210 0009602 350.3537   9.7520 15.33168965556366
GAOFEN-3                
1 41727U 16049A   26178.28254238  .00000281  00000+0  98566-4 0  9997
2 41727  98.4012 185.9161 0001610  97.6427 262.4946 14.42217456520108
SKYSAT-C4               
1 41771U 16058B   26178.02393190  .00017634  00000+0  32846-3 0  9997
2 41771  96.9173 199.3847 0002116 140.2622 219.8786 15.48889148546995
SKYSAT-C5               
1 41772U 16058C   26178.08091030  .00007929  00000+0  23869-3 0  9993
2 41772  97.0469 218.2797 0001255 217.2936 142.8221 15.34605678545264
SKYSAT-C2               
1 41773U 16058D   26178.05719803  .00012888  00000+0  30115-3 0  9998
2 41773  97.0164 199.7812 0003773  48.8465 311.3108 15.42289113546573
SKYSAT-C3               
1 41774U 16058E   26178.32572818  .00023961  00000+0  38563-3 0  9991
2 41774  96.9009 208.7836 0001261 122.4078 237.7298 15.52965864547685
ALSAT-1B                
1 41785U 16059C   26178.29874047  .00000267  00000+0  49775-4 0  9991
2 41785  97.7750 186.6261 0008903 184.5989 175.5139 14.72281630522066
PATHFINDER 1            
1 41787U 16059E   26178.22667878  .00000593  00000+0  11180-3 0  9998
2 41787  97.8167 177.0499 0028645 171.3104 188.8603 14.67673782521188
SCATSAT 1               
1 41790U 16059H   26178.15487731  .00001168  00000+0  15989-3 0  9992
2 41790  98.1188 242.0239 0053870 214.7386 145.0303 14.79546149103060
GOKTURK 1A              
1 41875U 16073A   26178.30110321  .00000630  00000+0  13274-3 0  9995
2 41875  98.1245  72.8169 0001422  76.4054 283.7306 14.62782258510307
RESOURCESAT-2A          
1 41877U 16074A   26177.71313799  .00000149  00000+0  87902-4 0  9991
2 41877  98.7527 251.1399 0003226  65.3724 294.7789 14.21619347495650
CARTOSAT-2D             
1 41948U 17008A   26178.30155118  .00005146  00000+0  24709-3 0  9990
2 41948  97.4108 237.4183 0004758 193.0589 167.0523 15.19282750519115
SENTINEL-2B             
1 42063U 17013A   26178.27741690 -.00000130  00000+0 -32810-4 0  9990
2 42063  98.5693 252.9097 0001194  88.5222 271.6098 14.30818961486083
CARTOSAT-2E             
1 42767U 17036C   26178.31924628  .00004327  00000+0  20859-3 0  9994
2 42767  97.4272 237.9548 0002272 268.3056  91.7918 15.19240703499683
FORMOSAT-5              
1 42920U 17049A   26178.25946062  .00000155  00000+0  50188-4 0  9992
2 42920  98.2253 253.3454 0012414  56.3544 303.8833 14.50902247468137
SENTINEL-5P             
1 42969U 17064A   26178.28137357  .00000035  00000+0  37521-4 0  9997
2 42969  98.7926 120.3410 0001025  90.5538 269.5756 14.19520575450998
SKYSAT-C11              
1 42987U 17068A   26178.14015562  .00031169  00000+0  41043-3 0  9994
2 42987  97.4353 327.4078 0000427 130.8190 229.3103 15.58399852484796
SKYSAT-C10              
1 42988U 17068B   26178.13769472  .00009735  00000+0  29090-3 0  9992
2 42988  97.4509 315.0828 0001180 105.6889 254.4484 15.34799007483888
SKYSAT-C9               
1 42989U 17068C   26178.29951340  .00013847  00000+0  32834-3 0  9996
2 42989  97.4432 316.2782 0009550 101.5096 258.7224 15.41805117484316
SKYSAT-C8               
1 42990U 17068D   26178.09385303  .00010617  00000+0  29401-3 0  9994
2 42990  97.4528 314.8762 0001341  94.7512 265.3886 15.37162527483832
SKYSAT-C7               
1 42991U 17068E   26177.95758425  .00010925  00000+0  30275-3 0  9991
2 42991  97.4536 315.7284 0007024  77.9411 282.2620 15.37112392483879
SKYSAT-C6               
1 42992U 17068F   26178.12600822  .00009916  00000+0  30247-3 0  9996
2 42992  97.4573 315.8304 0005179 123.7930 236.3806 15.34128495483841
CARTOSAT-2F             
1 43111U 18004A   26178.28564637  .00003978  00000+0  19179-3 0  9994
2 43111  97.4790 237.8216 0001756 165.5472 194.5813 15.19290766468865
GAOFEN-1 02             
1 43259U 18031A   26178.32867785  .00000695  00000+0  10737-3 0  9996
2 43259  98.0527 240.8273 0002894   5.5569 354.5672 14.76421249444199
GAOFEN-1 03             
1 43260U 18031B   26178.30670685  .00000132  00000+0  26458-4 0  9991
2 43260  98.0514 240.6629 0003588  59.0499 301.1062 14.76438896444183
GAOFEN-1 04             
1 43262U 18031D   26178.28251164  .00001130  00000+0  16985-3 0  9999
2 43262  98.0529 240.8306 0002004  65.9803 294.1616 14.76449075444178
SENTINEL-3B             
1 43437U 18039A   26178.14815586  .00000098  00000+0  58567-4 0  9995
2 43437  98.6246 245.5374 0000757 108.4761 251.6502 14.26737400425549
GAOFEN-5 01             
1 43461U 18043A   26178.20046602  .00000359  00000+0  83925-4 0  9995
2 43461  98.4575 149.9972 0002889  65.6693 294.4808 14.60612227433153
GAOFEN-6                
1 43484U 18048A   26178.30403367  .00000432  00000+0  69642-4 0  9993
2 43484  98.0894 240.9645 0011633 132.2478 227.9720 14.76373592434887
