OBJECT_NAME,OBJECT_ID,EPOCH,MEAN_MOTION,ECCENTRICITY,INCLINATION,RA_OF_ASC_NODE,ARG_OF_PERICENTER,MEAN_ANOMALY,EPHEMERIS_TYPE,CLASSIFICATION_TYPE,NORAD_CAT_ID,ELEMENT_SET_NO,REV_AT_EPOCH,BSTAR,MEAN_MOTION_DOT,MEAN_MOTION_DDOT
SKYSAT-C1,2016-040C,2026-06-27T01:13:36.486336,15.36462513,.00025271,96.9564,209.2368,37.9380,322.2043,0,U,41601,999,55938,.27289081E-3,.9636E-4,0
LAPAN-A3,2016-040E,2026-06-27T07:23:08.412000,15.33168965,.00096025,97.1487,174.1210,350.3537,9.7520,0,U,41603,999,55636,.12589448E-3,.3963E-4,0
GAOFEN-3,2016-049A,2026-06-27T06:46:51.661632,14.42217456,.00016109,98.4012,185.9161,97.6427,262.4946,0,U,41727,999,52010,.98566357E-4,.281E-5,0
SKYSAT-C4,2016-058B,2026-06-27T00:34:27.716160,15.48889148,.00021163,96.9173,199.3847,140.2622,219.8786,0,U,41771,999,54699,.32846344E-3,.17634E-3,0
SKYSAT-C5,2016-058C,2026-06-27T01:56:30.649920,15.34605678,.00012553,97.0469,218.2797,217.2936,142.8221,0,U,41772,999,54526,.23869226E-3,.7929E-4,0
SKYSAT-C2,2016-058D,2026-06-27T01:22:21.909792,15.42289113,.00037738,97.0164,199.7812,48.8465,311.3108,0,U,41773,999,54657,.30114524E-3,.12888E-3,0
SKYSAT-C3,2016-058E,2026-06-27T07:49:02.914752,15.52965864,.00012616,96.9009,208.7836,122.4078,237.7298,0,U,41774,999,54768,.38562835E-3,.23961E-3,0
ALSAT-1B,2016-059C,2026-06-27T07:10:11.176608,14.72281630,.00089033,97.7750,186.6261,184.5989,175.5139,0,U,41785,999,52206,.49775064E-4,.267E-5,0
PATHFINDER 1,2016-059E,2026-06-27T05:26:25.046592,14.67673782,.00286454,97.8167,177.0499,171.3104,188.8603,0,U,41787,999,52118,.11179908E-3,.593E-5,0
SCATSAT 1,2016-059H,2026-06-27T03:43:01.399584,14.79546149,.00538701,98.1188,242.0239,214.7386,145.0303,0,U,41790,999,10306,.15989333E-3,.1168E-4,0
GOKTURK 1A,2016-073A,2026-06-27T07:13:35.317344,14.62782258,.00014228,98.1245,72.8169,76.4054,283.7306,0,U,41875,999,51030,.13273581E-3,.63E-5,0
RESOURCESAT-2A,2016-074A,2026-06-26T17:06:55.122336,14.21619347,.00032264,98.7527,251.1399,65.3724,294.7789,0,U,41877,999,49565,.87901773E-4,.149E-5,0
CARTOSAT-2D,2017-008A,2026-06-27T07:14:14.021952,15.19282750,.00047589,97.4108,237.4183,193.0589,167.0523,0,U,41948,999,51911,.24708553E-3,.5146E-4,0
SENTINEL-2B,2017-013A,2026-06-27T06:39:28.820160,14.30818961,.00011948,98.5693,252.9097,88.5222,271.6098,0,U,42063,999,48608,-.32809763E-4,-.13E-5,0
CARTOSAT-2E,2017-036C,2026-06-27T07:39:42.878592,15.19240703,.00022727,97.4272,237.9548,268.3056,91.7918,0,U,42767,999,49968,.20859062E-3,.4327E-4,0
FORMOSAT-5,2017-049A,2026-06-27T06:13:37.397568,14.50902247,.00124141,98.2253,253.3454,56.3544,303.8833,0,U,42920,999,46813,.50187969E-4,.155E-5,0
SENTINEL-5P,2017-064A,2026-06-27T06:45:10.676448,14.19520575,.00010251,98.7926,120.3410,90.5538,269.5756,0,U,42969,999,45099,.37521406E-4,.35E-6,0
SKYSAT-C11,2017-068A,2026-06-27T03:21:49.445568,15.58399852,.00004275,97.4353,327.4078,130.8190,229.3103,0,U,42987,999,48479,.41042584E-3,.31169E-3,0
SKYSAT-C10,2017-068B,2026-06-27T03:18:16.823808,15.34799007,.00011804,97.4509,315.0828,105.6889,254.4484,0,U,42988,999,48388,.29089609E-3,.9735E-4,0
SKYSAT-C9,2017-068C,2026-06-27T07:11:17.957760,15.41805117,.00095506,97.4432,316.2782,101.5096,258.7224,0,U,42989,999,48431,.32834125E-3,.13847E-3,0
SKYSAT-C8,2017-068D,2026-06-27T02:15:08.901792,15.37162527,.00013418,97.4528,314.8762,94.7512,265.3886,0,U,42990,999,48383,.29400895E-3,.10617E-3,0
SKYSAT-C7,2017-068E,2026-06-26T22:58:55.279200,15.37112392,.00070249,97.4536,315.7284,77.9411,282.2620,0,U,42991,999,48387,.302746E-3,.10925E-3,0
SKYSAT-C6,2017-068F,2026-06-27T03:01:27.110208,15.34128495,.00051794,97.4573,315.8304,123.7930,236.3806,0,U,42992,999,48384,.30247434E-3,.9916E-4,0
CARTOSAT-2F,2018-004A,2026-06-27T06:51:19.846368,15.19290766,.00017569,97.4790,237.8216,165.5472,194.5813,0,U,43111,999,46886,.19179165E-3,.3978E-4,0
GAOFEN-1 02,2018-031A,2026-06-27T07:53:17.766240,14.76421249,.00028942,98.0527,240.8273,5.5569,354.5672,0,U,43259,999,44419,.10737283E-3,.695E-5,0
GAOFEN-1 03,2018-031B,2026-06-27T07:21:39.471840,14.76438896,.00035888,98.0514,240.6629,59.0499,301.1062,0,U,43260,999,44418,.26457735E-4,.132E-5,0
GAOFEN-1 04,2018-031D,2026-06-27T06:46:49.005696,14.76449075,.00020043,98.0529,240.8306,65.9803,294.1616,0,U,43262,999,44417,.16984552E-3,.113E-4,0
SENTINEL-3B,2018-039A,2026-06-27T03:33:20.666304,14.26737400,.00007571,98.6246,245.5374,108.4761,251.6502,0,U,43437,999,42554,.58567144E-4,.98E-6,0
GAOFEN-5 01,2018-043A,2026-06-27T04:48:40.264128,14.60612227,.0002889,98.4575,149.9972,65.6693,294.4808,0,U,43461,999,43315,.83925044E-4,.359E-5,0
GAOFEN-6,2018-048A,2026-06-27T07:17:48.509088,14.76373592,.00116339,98.0894,240.9645,132.2478,227.9720,0,U,43484,999,43488,.6964218E-4,.432E-5,0
